STARLINK-37998          
1 69679U 26145C   26199.58335648 -.00152409  00000+0 -10364-2 0  9992
2 69679  97.2835  46.5963 0001580  89.0450 159.9515 15.75252049  4971
STARLINK-37994          
1 69680U 26145D   26199.03263224  .00121992  00000+0  80404-3 0  9998
2 69680  97.2838  46.0140 0001343  71.1701 288.9709 15.75278728  3627
STARLINK-37992          
1 69681U 26145E   26199.03227339  .00119856  00000+0  79137-3 0  9993
2 69681  97.2834  46.0142 0000341 108.8497 251.2806 15.75244089  3627
STARLINK-37997          
1 69682U 26145F   26198.00002315 -.00003501  00000+0 -22625-4 0  9997
2 69682  97.2838  44.9322 0001192  99.5818 174.9569 15.75175815  4715
STARLINK-37990          
1 69683U 26145G   26199.54014590  .00125169  00000+0  82606-3 0  9993
2 69683  97.2833  46.5468 0001619 108.6389 251.5052 15.75238562  3705
STARLINK-37951          
1 69684U 26145H   26199.58335648 -.00079690  00000+0 -53720-3 0  9992
2 69684  97.2834  46.5969 0001451  86.7499 164.2024 15.75240784  4973
STARLINK-37957          
1 69685U 26145J   26199.53802746  .00207434  00000+0  13545-2 0  9993
2 69685  97.2833  46.5496 0001293 105.7908 254.3500 15.75251212  3707
STARLINK-37968          
1 69686U 26145K   26199.53202842  .00216089  00000+0  14084-2 0  9990
2 69686  97.2837  46.5585 0001359 112.0096 248.1314 15.75270028  3703
STARLINK-37977          
1 69687U 26145L   26199.53132342  .00193204  00000+0  12633-2 0  9999
2 69687  97.2835  46.5594 0001613 112.1942 247.9495 15.75259432  3709
STARLINK-37908          
1 69688U 26145M   26199.02098493  .00219435  00000+0  14325-2 0  9997
2 69688  97.2836  46.0301 0001682  78.6283 281.5171 15.75224120  3624
STARLINK-37979          
1 69689U 26145N   26199.52885273  .00110607  00000+0  73170-3 0  9998
2 69689  97.2841  46.5634 0001272 107.2217 252.9188 15.75226628  3700
STARLINK-37940          
1 69690U 26145P   26199.08310577  .00206266  00000+0  13387-2 0  9991
2 69690  97.2842  46.0992 0004687  57.8817 302.2903 15.75385283  3633
STARLINK-37961          
1 69691U 26145Q   26199.52461722  .00183660  00000+0  12019-2 0  9993
2 69691  97.2848  46.5693 0002379 115.2848 244.8664 15.75265952  3705
STARLINK-37787          
1 69692U 26145R   26199.52249666  .00210196  00000+0  13706-2 0  9994
2 69692  97.2837  46.5713 0001320 124.0872 236.0519 15.75275704  3705
STARLINK-37962          
1 69693U 26145S   26199.52073579  .00199536  00000+0  13039-2 0  9996
2 69693  97.2837  46.5741 0001147  98.3652 261.7743 15.75255701  3702
STARLINK-37953          
1 69694U 26145T   26199.52355873  .00178518  00000+0  11699-2 0  9994
2 69694  97.2847  46.5705 0001494 114.7125 245.4296 15.75249582  3709
STARLINK-37926          
1 69695U 26145U   26199.52285295  .00189522  00000+0  12396-2 0  9997
2 69695  97.2840  46.5720 0001473 108.5665 251.5760 15.75263200  3704
STARLINK-37959          
1 69696U 26145V   26199.52179443  .00178021  00000+0  11669-2 0  9999
2 69696  97.2834  46.5716 0001225 101.4679 258.6724 15.75245600  3707
STARLINK-37976          
1 69697U 26145W   26199.51897024  .00188398  00000+0  12340-2 0  9996
2 69697  97.2841  46.5763 0001151 104.1940 255.9454 15.75232776  3707
STARLINK-37912          
1 69698U 26145X   26199.51791194  .00191740  00000+0  12546-2 0  9991
2 69698  97.2840  46.5784 0000915 115.9651 244.1708 15.75248002  3707
STARLINK-37974          
1 69699U 26145Y   26199.51720631  .00178619  00000+0  11705-2 0  9996
2 69699  97.2847  46.5797 0001162 104.1694 255.9700 15.75249636  3707
STARLINK-37955          
1 69700U 26145Z   26199.51473134  .00172888  00000+0  11334-2 0  9992
2 69700  97.2841  46.5834 0000510 120.3572 239.7744 15.75257524  3700
STRIX-8                 
1 69701U 26146A   26199.60474997  .00002092  00000+0  16052-3 0  9994
2 69701  41.9906 354.2055 0006681  47.1446 312.9941 15.04450572  3291
STARLINK-38055          
1 69704U 26147A   26199.58749721  .00162809  00000+0  83506-3 0  9996
2 69704  97.2831 236.1701 0001691  77.8840 282.2617 15.80812562  4391
STARLINK-37898          
1 69705U 26147B   26199.58665991  .00187428  00000+0  95398-3 0  9999
2 69705  97.2837 236.1721 0001719  70.4318 289.7136 15.80916358  4396
STARLINK-37970          
1 69706U 26147C   26199.58591951  .00149659  00000+0  76917-3 0  9994
2 69706  97.2825 236.1724 0001249  61.2460 298.8934 15.80803510  4393
STARLINK-37975          
1 69707U 26147D   26199.58516556  .00226889  00000+0  11530-2 0  9993
2 69707  97.2836 236.1738 0000815  52.4354 307.6988 15.80849323  4393
STARLINK-37972          
1 69708U 26147E   26199.58441801  .00150813  00000+0  77452-3 0  9993
2 69708  97.2831 236.1754 0001653  71.7291 288.4157 15.80816421  4399
